EARTHCARE               
1 59908U 24101A   24202.63029196  .00021431  00000+0  31891-3 0  9990
2 59908  96.9835 329.5870 0003107   1.2617 358.8645 15.55149582  8186
